[{"OBJECT_NAME":"STARLINK-32414","OBJECT_ID":"2024-193G","EPOCH":"2026-03-09T08:41:31.527744","MEAN_MOTION":15.3019375,"ECCENTRICITY":0.00012363,"INCLINATION":53.1605,"RA_OF_ASC_NODE":92.7322,"ARG_OF_PERICENTER":99.8757,"MEAN_ANOMALY":260.2383,"EPHEMERIS_TYPE":0,"CLASSIFICATION_TYPE":"U","NORAD_CAT_ID":61667,"ELEMENT_SET_NO":999,"REV_AT_EPOCH":7647,"BSTAR":4.063627e-6,"MEAN_MOTION_DOT":-2.39e-6,"MEAN_MOTION_DDOT":0},{"OBJECT_NAME":"CZ-4B DEB","OBJECT_ID":"2006-015E","EPOCH":"2026-03-09T20:34:53.082912","MEAN_MOTION":15.19885806,"ECCENTRICITY":0.00461993,"INCLINATION":98.0565,"RA_OF_ASC_NODE":201.7753,"ARG_OF_PERICENTER":62.4887,"MEAN_ANOMALY":298.1031,"EPHEMERIS_TYPE":0,"CLASSIFICATION_TYPE":"U","NORAD_CAT_ID":29538,"ELEMENT_SET_NO":999,"REV_AT_EPOCH":5389,"BSTAR":0.0022587151,"MEAN_MOTION_DOT":0.00050103,"MEAN_MOTION_DDOT":0}]
